[{"OBJECT_NAME":"STARLINK-4196","OBJECT_ID":"2022-062AF","EPOCH":"2026-03-09T06:43:10.767936","MEAN_MOTION":15.08842456,"ECCENTRICITY":0.00013927,"INCLINATION":53.2196,"RA_OF_ASC_NODE":25.9608,"ARG_OF_PERICENTER":90.389,"MEAN_ANOMALY":269.7262,"EPHEMERIS_TYPE":0,"CLASSIFICATION_TYPE":"U","NORAD_CAT_ID":52859,"ELEMENT_SET_NO":999,"REV_AT_EPOCH":20586,"BSTAR":-2.4094045e-5,"MEAN_MOTION_DOT":-6.71e-6,"MEAN_MOTION_DDOT":0},{"OBJECT_NAME":"SL-24 R\/B","OBJECT_ID":"2013-042B","EPOCH":"2026-03-09T12:40:44.242176","MEAN_MOTION":14.08721534,"ECCENTRICITY":0.04493882,"INCLINATION":97.5179,"RA_OF_ASC_NODE":292.5098,"ARG_OF_PERICENTER":125.3337,"MEAN_ANOMALY":239.0716,"EPHEMERIS_TYPE":0,"CLASSIFICATION_TYPE":"U","NORAD_CAT_ID":39228,"ELEMENT_SET_NO":999,"REV_AT_EPOCH":64027,"BSTAR":0.00010261222,"MEAN_MOTION_DOT":4.15e-6,"MEAN_MOTION_DDOT":0}]
